STARLINK-1885
1 17168C 20088AY  21326.11763838  .00647353  00000-0  32861-1 0  3268
2 17168  53.0542 142.9371 0001585  61.9105 334.2931 15.15753097    14
